start=new Date('2022-09-27T00:00:00.000Z').valueOf();
sats=[{"APOAPSIS":"540.884","RA_OF_ASC_NODE":"104.6702","TLE_LINE1":"1 49438U 21104AG  22269.87175558 -.00000286  00000-0  15254-6 0  9993","PERIAPSIS":"538.622","CENTER_NAME":"EARTH","CLASSIFICATION_TYPE":"U","COUNTRY_CODE":"US","LAUNCH_DATE":"2021-11-13","MEAN_ANOMALY":"304.9690","OBJECT_TYPE":"PAYLOAD","SEMIMAJOR_AXIS":"6917.888","DECAY_DATE":null,"EPOCH":"2022-09-26T20:55:19.682112","REV_AT_EPOCH":"4872","TLE_LINE2":"2 49438  53.2165 104.6702 0001635  55.1456 304.9690 15.08837494 48724","TIME_SYSTEM":"UTC","PERIOD":"95.438","MEAN_MOTION_DOT":"-0.00000286","GP_ID":"213600524","SITE":"AFETR","ARG_OF_PERICENTER":"55.1456","ELEMENT_SET_NO":"999","OBJECT_ID":"2021-104AG","REF_FRAME":"TEME","MEAN_ELEMENT_THEORY":"SGP4","OBJECT_NAME":"STARLINK-3044","RCS_SIZE":"LARGE","INCLINATION":"53.2165","FILE":"3584555","NORAD_CAT_ID":"49438","MEAN_MOTION_DDOT":"0.0000000000000","MEAN_MOTION":"15.08837494","EPHEMERIS_TYPE":"0","ECCENTRICITY":"0.00016350","BSTAR":"0.00000015254000"},{"NORAD_CAT_ID":"49439","FILE":"3584345","MEAN_MOTION_DDOT":"0.0000000000000","MEAN_MOTION":"15.08827078","EPHEMERIS_TYPE":"0","ECCENTRICITY":"0.00020930","BSTAR":"0.00017015000000","GP_ID":"213543990","SITE":"AFETR","ARG_OF_PERICENTER":"53.9177","ELEMENT_SET_NO":"999","OBJECT_ID":"2021-104AH","REF_FRAME":"TEME","MEAN_ELEMENT_THEORY":"SGP4","OBJECT_NAME":"STARLINK-3108","INCLINATION":"53.2171","RCS_SIZE":"LARGE","LAUNCH_DATE":"2021-11-13","MEAN_ANOMALY":"306.2009","OBJECT_TYPE":"PAYLOAD","SEMIMAJOR_AXIS":"6917.920","DECAY_DATE":null,"REV_AT_EPOCH":"4858","EPOCH":"2022-09-25T22:13:25.961088","TLE_LINE2":"2 49439  53.2171 108.9239 0002093  53.9177 306.2009 15.08827078 48589","TIME_SYSTEM":"UTC","PERIOD":"95.438","MEAN_MOTION_DOT":"0.00002420","APOAPSIS":"541.233","RA_OF_ASC_NODE":"108.9239","TLE_LINE1":"1 49439U 21104AH  22268.92599492  .00002420  00000-0  17015-3 0  9991","PERIAPSIS":"538.337","CENTER_NAME":"EARTH","CLASSIFICATION_TYPE":"U","COUNTRY_CODE":"US"},{"TLE_LINE1":"1 49440U 21104AJ  22269.80183922 -.00001356  00000-0 -67093-4 0  9999","PERIAPSIS":"538.289","CENTER_NAME":"EARTH","CLASSIFICATION_TYPE":"U","COUNTRY_CODE":"US","APOAPSIS":"541.203","RA_OF_ASC_NODE":"104.9906","SEMIMAJOR_AXIS":"6917.881","DECAY_DATE":null,"REV_AT_EPOCH":"4871","EPOCH":"2022-09-26T19:14:38.908608","TLE_LINE2":"2 49440  53.2155 104.9906 0002106  44.5707 315.5454 15.08839872 48717","TIME_SYSTEM":"UTC","PERIOD":"95.438","MEAN_MOTION_DOT":"-0.00001356","LAUNCH_DATE":"2021-11-13","MEAN_ANOMALY":"315.5454","OBJECT_TYPE":"PAYLOAD","REF_FRAME":"TEME","MEAN_ELEMENT_THEORY":"SGP4","OBJECT_NAME":"STARLINK-3105","INCLINATION":"53.2155","RCS_SIZE":"LARGE","GP_ID":"213600023","SITE":"AFETR","ARG_OF_PERICENTER":"44.5707","ELEMENT_SET_NO":"999","OBJECT_ID":"2021-104AJ","ECCENTRICITY":"0.00021060","BSTAR":"-0.00006709300000","NORAD_CAT_ID":"49440","FILE":"3584555","MEAN_MOTION":"15.08839872","MEAN_MOTION_DDOT":"0.0000000000000","EPHEMERIS_TYPE":"0"},{"ARG_OF_PERICENTER":"61.0119","ELEMENT_SET_NO":"999","OBJECT_ID":"2021-104AK","GP_ID":"213545476","SITE":"AFETR","OBJECT_NAME":"STARLINK-3128","RCS_SIZE":"LARGE","INCLINATION":"53.2171","REF_FRAME":"TEME","MEAN_ELEMENT_THEORY":"SGP4","MEAN_MOTION_DDOT":"0.0000000000000","MEAN_MOTION":"15.08834892","EPHEMERIS_TYPE":"0","NORAD_CAT_ID":"49441","FILE":"3584345","ECCENTRICITY":"0.00015020","BSTAR":"0.00000883340000","APOAPSIS":"540.800","RA_OF_ASC_NODE":"107.4503","CLASSIFICATION_TYPE":"U","COUNTRY_CODE":"US","TLE_LINE1":"1 49441U 21104AK  22269.25352810 -.00000147  00000-0  88334-5 0  9991","PERIAPSIS":"538.722","CENTER_NAME":"EARTH","OBJECT_TYPE":"PAYLOAD","LAUNCH_DATE":"2021-11-13","MEAN_ANOMALY":"299.1024","TLE_LINE2":"2 49441  53.2171 107.4503 0001502  61.0119 299.1024 15.08834892 48635","TIME_SYSTEM":"UTC","PERIOD":"95.438","MEAN_MOTION_DOT":"-0.00000147","SEMIMAJOR_AXIS":"6917.896","DECAY_DATE":null,"EPOCH":"2022-09-26T06:05:04.827840","REV_AT_EPOCH":"4863"},{"OBJECT_TYPE":"PAYLOAD","MEAN_ANOMALY":"314.8686","LAUNCH_DATE":"2021-11-13","TIME_SYSTEM":"UTC","TLE_LINE2":"2 49442  53.2154 109.1597 0001981  45.2467 314.8686 15.08835267 48579","MEAN_MOTION_DOT":"-0.00000620","PERIOD":"95.438","SEMIMAJOR_AXIS":"6917.895","REV_AT_EPOCH":"4857","EPOCH":"2022-09-25T20:53:56.873760","DECAY_DATE":null,"RA_OF_ASC_NODE":"109.1597","APOAPSIS":"541.130","COUNTRY_CODE":"US","CLASSIFICATION_TYPE":"U","PERIAPSIS":"538.389","TLE_LINE1":"1 49442U 21104AL  22268.87079715 -.00000620  00000-0 -20876-4 0  9992","CENTER_NAME":"EARTH","EPHEMERIS_TYPE":"0","MEAN_MOTION":"15.08835267","MEAN_MOTION_DDOT":"0.0000000000000","FILE":"3584345","NORAD_CAT_ID":"49442","ECCENTRICITY":"0.00019810","BSTAR":"-0.00002087600000","ELEMENT_SET_NO":"999","ARG_OF_PERICENTER":"45.2467","OBJECT_ID":"2021-104AL","SITE":"AFETR","GP_ID":"213544245","OBJECT_NAME":"STARLINK-3098","RCS_SIZE":"LARGE","INCLINATION":"53.2154","REF_FRAME":"TEME","MEAN_ELEMENT_THEORY":"SGP4"},{"INCLINATION":"53.2146","RCS_SIZE":"LARGE","OBJECT_NAME":"STARLINK-3136","MEAN_ELEMENT_THEORY":"SGP4","REF_FRAME":"TEME","OBJECT_ID":"2021-104AM","ARG_OF_PERICENTER":"56.9009","ELEMENT_SET_NO":"999","GP_ID":"213517978","SITE":"AFETR","BSTAR":"-0.00002498800000","ECCENTRICITY":"0.00019320","MEAN_MOTION_DDOT":"0.0000000000000","MEAN_MOTION":"15.08842694","EPHEMERIS_TYPE":"0","FILE":"3584189","NORAD_CAT_ID":"49443","CLASSIFICATION_TYPE":"U","COUNTRY_CODE":"US","CENTER_NAME":"EARTH","TLE_LINE1":"1 49443U 21104AM  22268.85238642 -.00000686  00000-0 -24988-4 0  9997","PERIAPSIS":"538.401","APOAPSIS":"541.074","RA_OF_ASC_NODE":"109.2460","PERIOD":"95.437","MEAN_MOTION_DOT":"-0.00000686","TLE_LINE2":"2 49443  53.2146 109.2460 0001932  56.9009 303.2168 15.08842694 49646","TIME_SYSTEM":"UTC","DECAY_DATE":null,"REV_AT_EPOCH":"4964","EPOCH":"2022-09-25T20:27:26.186688","SEMIMAJOR_AXIS":"6917.872","OBJECT_TYPE":"PAYLOAD","LAUNCH_DATE":"2021-11-13","MEAN_ANOMALY":"303.2168"},{"MEAN_MOTION_DOT":"-0.00000296","PERIOD":"95.438","TIME_SYSTEM":"UTC","TLE_LINE2":"2 49444  53.2159 104.7202 0001762  49.6166 310.4979 15.08830855 48723","REV_AT_EPOCH":"4872","EPOCH":"2022-09-26T20:39:26.246880","DECAY_DATE":null,"SEMIMAJOR_AXIS":"6917.908","OBJECT_TYPE":"PAYLOAD","MEAN_ANOMALY":"310.4979","LAUNCH_DATE":"2021-11-13","COUNTRY_CODE":"US","CLASSIFICATION_TYPE":"U","CENTER_NAME":"EARTH","PERIAPSIS":"538.554","TLE_LINE1":"1 49444U 21104AN  22269.86072045 -.00000296  00000-0 -47080-6 0  9990","RA_OF_ASC_NODE":"104.7202","APOAPSIS":"540.992","BSTAR":"-0.00000047080000","ECCENTRICITY":"0.00017620","EPHEMERIS_TYPE":"0","MEAN_MOTION_DDOT":"0.0000000000000","MEAN_MOTION":"15.08830855","NORAD_CAT_ID":"49444","FILE":"3584555","RCS_SIZE":"LARGE","INCLINATION":"53.2159","OBJECT_NAME":"STARLINK-3126","MEAN_ELEMENT_THEORY":"SGP4","REF_FRAME":"TEME","OBJECT_ID":"2021-104AN","ELEMENT_SET_NO":"999","ARG_OF_PERICENTER":"49.6166","SITE":"AFETR","GP_ID":"213599523"},{"REF_FRAME":"TEME","MEAN_ELEMENT_THEORY":"SGP4","OBJECT_NAME":"STARLINK-3122","INCLINATION":"53.2159","RCS_SIZE":"LARGE","GP_ID":"213599773","SITE":"AFETR","ARG_OF_PERICENTER":"54.9601","ELEMENT_SET_NO":"999","OBJECT_ID":"2021-104AP","ECCENTRICITY":"0.00019090","BSTAR":"-0.00004767500000","FILE":"3584555","NORAD_CAT_ID":"49445","MEAN_MOTION_DDOT":"0.0000000000000","MEAN_MOTION":"15.08833386","EPHEMERIS_TYPE":"0","TLE_LINE1":"1 49445U 21104AP  22269.87451796 -.00001047  00000-0 -47675-4 0  9999","PERIAPSIS":"538.445","CENTER_NAME":"EARTH","CLASSIFICATION_TYPE":"U","COUNTRY_CODE":"US","APOAPSIS":"541.086","RA_OF_ASC_NODE":"114.6594","SEMIMAJOR_AXIS":"6917.901","DECAY_DATE":null,"EPOCH":"2022-09-26T20:59:18.351744","REV_AT_EPOCH":"4858","TLE_LINE2":"2 49445  53.2159 114.6594 0001909  54.9601 305.1570 15.08833386 48588","TIME_SYSTEM":"UTC","PERIOD":"95.438","MEAN_MOTION_DOT":"-0.00001047","LAUNCH_DATE":"2021-11-13","MEAN_ANOMALY":"305.1570","OBJECT_TYPE":"PAYLOAD"},{"COUNTRY_CODE":"US","CLASSIFICATION_TYPE":"U","CENTER_NAME":"EARTH","PERIAPSIS":"538.822","TLE_LINE1":"1 49446U 21104AQ  22269.26087699 -.00000499  00000-0 -13299-4 0  9995","RA_OF_ASC_NODE":"107.4121","APOAPSIS":"540.722","MEAN_MOTION_DOT":"-0.00000499","PERIOD":"95.438","TIME_SYSTEM":"UTC","TLE_LINE2":"2 49446  53.2161 107.4121 0001373  76.4517 283.6628 15.08831376 48635","EPOCH":"2022-09-26T06:15:39.771936","REV_AT_EPOCH":"4863","DECAY_DATE":null,"SEMIMAJOR_AXIS":"6917.907","OBJECT_TYPE":"PAYLOAD","MEAN_ANOMALY":"283.6628","LAUNCH_DATE":"2021-11-13","INCLINATION":"53.2161","RCS_SIZE":"LARGE","OBJECT_NAME":"STARLINK-3099","MEAN_ELEMENT_THEORY":"SGP4","REF_FRAME":"TEME","OBJECT_ID":"2021-104AQ","ELEMENT_SET_NO":"999","ARG_OF_PERICENTER":"76.4517","SITE":"AFETR","GP_ID":"213543744","BSTAR":"-0.00001329900000","ECCENTRICITY":"0.00013730","EPHEMERIS_TYPE":"0","MEAN_MOTION_DDOT":"0.0000000000000","MEAN_MOTION":"15.08831376","NORAD_CAT_ID":"49446","FILE":"3584345"},{"RA_OF_ASC_NODE":"114.6904","APOAPSIS":"541.032","COUNTRY_CODE":"US","CLASSIFICATION_TYPE":"U","PERIAPSIS":"538.475","TLE_LINE1":"1 49447U 21104AR  22269.86715610 -.00001001  00000-0 -44787-4 0  9999","CENTER_NAME":"EARTH","OBJECT_TYPE":"PAYLOAD","MEAN_ANOMALY":"300.9452","LAUNCH_DATE":"2021-11-13","TIME_SYSTEM":"UTC","TLE_LINE2":"2 49447  53.2150 114.6904 0001848  59.1722 300.9452 15.08837458 48585","MEAN_MOTION_DOT":"-0.00001001","PERIOD":"95.438","SEMIMAJOR_AXIS":"6917.888","EPOCH":"2022-09-26T20:48:42.287040","REV_AT_EPOCH":"4858","DECAY_DATE":null,"ELEMENT_SET_NO":"999","ARG_OF_PERICENTER":"59.1722","OBJECT_ID":"2021-104AR","SITE":"AFETR","GP_ID":"213601273","OBJECT_NAME":"STARLINK-3115","RCS_SIZE":"LARGE","INCLINATION":"53.2150","REF_FRAME":"TEME","MEAN_ELEMENT_THEORY":"SGP4","EPHEMERIS_TYPE":"0","MEAN_MOTION_DDOT":"0.0000000000000","MEAN_MOTION":"15.08837458","FILE":"3584555","NORAD_CAT_ID":"49447","ECCENTRICITY":"0.00018480","BSTAR":"-0.00004478700000"}];
